BEIDOU-2 IGSO-4         
1 37763U 11038A   26151.51943152  .00000047  00000+0  00000+0 0  9993
2 37763  54.5976 165.8209 0158670 231.3955 131.4280  1.00288616 54482
ASTRA 1N                
1 37775U 11041A   26154.92721869  .00000132  00000+0  00000+0 0  9992
2 37775   0.1059  50.9674 0006225  33.3906 161.0275  1.00273391 44394
BSAT-3C (JCSAT-110R)    
1 37776U 11041B   26154.80045322 -.00000338  00000+0  00000+0 0  9992
2 37776   0.0153 357.5370 0000639 143.0950 149.7502  1.00270654 50335
PAKSAT-1R               
1 37779U 11042A   26154.85967244  .00000166  00000+0  00000+0 0  9995
2 37779   0.6542  84.7288 0003501 341.8502 173.1841  1.00273097 54341
SES-2                   
1 37809U 11049A   26154.83471435 -.00000184  00000+0  00000+0 0  9997
2 37809   0.0491 108.7978 0002952 324.3031  32.6927  1.00271827 53833
ARABSAT-5C              
1 37810U 11049B   26154.92739203  .00000135  00000+0  00000+0 0  9994
2 37810   0.0549  19.1229 0003169  71.3078 155.7976  1.00271973 53905
EUTELSAT 7 WEST A       
1 37816U 11051A   26154.92201868 -.00000048  00000+0  00000+0 0  9998
2 37816   0.0617 343.8079 0004374 102.7649 130.4192  1.00270995 53744
QUETZSAT 1              
1 37826U 11054A   26154.90814269 -.00000230  00000+0  00000+0 0  9998
2 37826   0.0371  59.7076 0002925  16.4606  66.1306  1.00271007 49748
INTELSAT 18 (IS-18)     
1 37834U 11056A   26154.81651426  .00000065  00000+0  00000+0 0  9998
2 37834   0.0148 290.3203 0002273 153.6049 282.2945  1.00271387 53673
EUTELSAT 16A            
1 37836U 11057A   26154.92661203  .00000116  00000+0  00000+0 0  9994
2 37836   0.0434 339.8716 0005793  95.5485 166.5496  1.00269262  7201
VIASAT-1                
1 37843U 11059A   26154.90060265 -.00000012  00000+0  00000+0 0  9999
2 37843   0.0184 323.8942 0002562 108.9206  28.6620  1.00271433 47198
ASIASAT 7               
1 37933U 11069A   26154.94429333 -.00000322  00000+0  00000+0 0  9993
2 37933   0.0174 309.0647 0001744 112.7374 276.0718  1.00272227 44720
BEIDOU-2 IGSO-5         
1 37948U 11073A   26154.80024937 -.00000164  00000+0  00000+0 0  9994
2 37948  47.7037 271.7129 0113215 221.7055 138.6631  1.00276263 53008
LUCH-5A                 
1 37951U 11074B   26154.59997321 -.00000040  00000+0  00000+0 0  9994
2 37951   8.7196  74.0070 0002542   6.8665 194.2061  1.00269907 52914
NIGCOMSAT 1R            
1 38014U 11077A   26154.93181328  .00000157  00000+0  00000+0 0  9996
2 38014   0.0247 223.7185 0002822 133.1312 273.4853  1.00270227 52827
WGS F4 (USA 233)        
1 38070U 12003A   26154.86966250  .00000000  00000+0  00000+0 0  9992
2 38070   0.0174 337.8905 0000210 339.6429 336.2878  1.00270636 44017
SES-4                   
1 38087U 12007A   26154.84780108 -.00000156  00000+0  00000+0 0  9991
2 38087   0.0284  31.2189 0002514  55.3932  88.8971  1.00270172 52092
BEIDOU-2 G5             
1 38091U 12008A   26154.93501997  .00000068  00000+0  00000+0 0  9995
2 38091   3.5412  69.7793 0009652 276.3203 301.6150  1.00269137 52231
MUOS-1                  
1 38093U 12009A   26154.62951272 -.00000118  00000+0  00000+0 0  9996
2 38093   5.4494  47.1663 0058940   0.7427 330.8540  1.00270967 52309
INTELSAT 22 (IS-22)     
1 38098U 12011A   26154.86643248 -.00000047  00000+0  00000+0 0  9992
2 38098   0.0092  36.3729 0002041  36.7048 203.2481  1.00271920  7050
APSTAR-7                
1 38107U 12013A   26154.93857331 -.00000090  00000+0  00000+0 0  9991
2 38107   0.0201  14.6102 0003003  67.1116 225.0581  1.00271616 51672
YAHSAT 1B               
1 38245U 12016A   26154.93285329  .00000139  00000+0  00000+0 0  9992
2 38245   0.0918  91.1579 0002808   2.8746 181.7795  1.00269950 45479
AEHF-2 (USA 235)        
1 38254U 12019A   26154.42112378 -.00000126  00000+0  00000+0 0  9999
2 38254   6.6199  57.5897 0002305   4.5523 324.8483  1.00270752  6849
JCSAT-13                
1 38331U 12023A   26154.87668253 -.00000344  00000+0  00000+0 0  9999
2 38331   0.0302  66.9405 0003012  23.7566 241.2432  1.00270601 51405
VINASAT-2               
1 38332U 12023B   26154.87824255 -.00000317  00000+0  00000+0 0  9996
2 38332   0.0140 347.3941 0002652  99.7046 253.2552  1.00270844 46524
NIMIQ 6                 
1 38342U 12026A   26154.90536934 -.00000162  00000+0  00000+0 0  9996
2 38342   0.0102 318.6520 0002943 113.8795  54.6575  1.00273348 50287
ZHONGXING-2A            
1 38352U 12028A   26155.20113999 -.00000281  00000+0  00000+0 0  9997
2 38352   1.4206  84.0562 0003716  33.5112 305.7291  1.00272684 51163
INTELSAT 19 (IS-19)     
1 38356U 12030A   26154.88491591 -.00000044  00000+0  00000+0 0  9991
2 38356   0.0187 330.5606 0003247 109.3755 296.9797  1.00272188 50319
ECHOSTAR 17             
1 38551U 12035A   26154.90224932  .00000000  00000+0  00000+0 0  9990
2 38551   0.0186 347.4310 0001932  84.7909  37.8480  1.00269781 50934
METEOSAT-10 (MSG-3)     
1 38552U 12035B   26154.92349201  .00000005  00000+0  00000+0 0  9995
2 38552   4.6402  61.0788 0001856 337.7141 186.1957  1.00275518 50727
SES-5                   
1 38652U 12036A   26154.75000000  .00000046  00000+0  00000+0 0  9994
2 38652   0.0465 310.2198 0002170 120.8405  96.1312  1.00270184 44323
INTELSAT 20 (IS-20)     
1 38740U 12043A   26154.86573914 -.00000012  00000+0  00000+0 0  9995
2 38740   0.0058  91.3222 0001629  86.8326  94.3264  1.00271717 50613
