OBJECT_NAME,OBJECT_ID,EPOCH,MEAN_MOTION,ECCENTRICITY,INCLINATION,RA_OF_ASC_NODE,ARG_OF_PERICENTER,MEAN_ANOMALY,EPHEMERIS_TYPE,CLASSIFICATION_TYPE,NORAD_CAT_ID,ELEMENT_SET_NO,REV_AT_EPOCH,BSTAR,MEAN_MOTION_DOT,MEAN_MOTION_DDOT
BEIDOU-2 IGSO-4,2011-038A,2026-05-31T12:27:58.883328,1.00288616,.015867,54.5976,165.8209,231.3955,131.4280,0,U,37763,999,5448,0,.47E-6,0
ASTRA 1N,2011-041A,2026-06-03T22:15:11.694816,1.00273391,.00062255,0.1059,50.9674,33.3906,161.0275,0,U,37775,999,4439,0,.132E-5,0
BSAT-3C (JCSAT-110R),2011-041B,2026-06-03T19:12:39.158208,1.00270654,.00006394,0.0153,357.5370,143.0950,149.7502,0,U,37776,999,5033,0,-.338E-5,0
PAKSAT-1R,2011-042A,2026-06-03T20:37:55.698816,1.00273097,.00035012,0.6542,84.7288,341.8502,173.1841,0,U,37779,999,5434,0,.166E-5,0
SES-2,2011-049A,2026-06-03T20:01:59.319840,1.00271827,.00029523,0.0491,108.7978,324.3031,32.6927,0,U,37809,999,5383,0,-.184E-5,0
ARABSAT-5C,2011-049B,2026-06-03T22:15:26.671392,1.00271973,.00031692,0.0549,19.1229,71.3078,155.7976,0,U,37810,999,5390,0,.135E-5,0
EUTELSAT 7 WEST A,2011-051A,2026-06-03T22:07:42.413952,1.00270995,.00043744,0.0617,343.8079,102.7649,130.4192,0,U,37816,999,5374,0,-.48E-6,0
QUETZSAT 1,2011-054A,2026-06-03T21:47:43.528416,1.00271007,.00029253,0.0371,59.7076,16.4606,66.1306,0,U,37826,999,4974,0,-.23E-5,0
INTELSAT 18 (IS-18),2011-056A,2026-06-03T19:35:46.832064,1.00271387,.00022735,0.0148,290.3203,153.6049,282.2945,0,U,37834,999,5367,0,.65E-6,0
EUTELSAT 16A,2011-057A,2026-06-03T22:14:19.279392,1.00269262,.00057933,0.0434,339.8716,95.5485,166.5496,0,U,37836,999,720,0,.116E-5,0
VIASAT-1,2011-059A,2026-06-03T21:36:52.068960,1.00271433,.00025621,0.0184,323.8942,108.9206,28.6620,0,U,37843,999,4719,0,-.12E-6,0
ASIASAT 7,2011-069A,2026-06-03T22:39:46.943712,1.00272227,.00017441,0.0174,309.0647,112.7374,276.0718,0,U,37933,999,4472,0,-.322E-5,0
BEIDOU-2 IGSO-5,2011-073A,2026-06-03T19:12:21.545568,1.00276263,.01132159,47.7037,271.7129,221.7055,138.6631,0,U,37948,999,5300,0,-.164E-5,0
LUCH-5A,2011-074B,2026-06-03T14:23:57.685344,1.00269907,.0002542,8.7196,74.0070,6.8665,194.2061,0,U,37951,999,5291,0,-.4E-6,0
NIGCOMSAT 1R,2011-077A,2026-06-03T22:21:48.667392,1.00270227,.00028226,0.0247,223.7185,133.1312,273.4853,0,U,38014,999,5282,0,.157E-5,0
WGS F4 (USA 233),2012-003A,2026-06-03T20:52:18.840000,1.00270636,.00002108,0.0174,337.8905,339.6429,336.2878,0,U,38070,999,4401,0,0,0
SES-4,2012-007A,2026-06-03T20:20:50.013312,1.00270172,.0002514,0.0284,31.2189,55.3932,88.8971,0,U,38087,999,5209,0,-.156E-5,0
BEIDOU-2 G5,2012-008A,2026-06-03T22:26:25.725408,1.00269137,.00096527,3.5412,69.7793,276.3203,301.6150,0,U,38091,999,5223,0,.68E-6,0
MUOS-1,2012-009A,2026-06-03T15:06:29.899008,1.00270967,.00589404,5.4494,47.1663,0.7427,330.8540,0,U,38093,999,5230,0,-.118E-5,0
INTELSAT 22 (IS-22),2012-011A,2026-06-03T20:47:39.766272,1.00271920,.00020415,0.0092,36.3729,36.7048,203.2481,0,U,38098,999,705,0,-.47E-6,0
APSTAR-7,2012-013A,2026-06-03T22:31:32.733984,1.00271616,.0003003,0.0201,14.6102,67.1116,225.0581,0,U,38107,999,5167,0,-.9E-6,0
YAHSAT 1B,2012-016A,2026-06-03T22:23:18.524256,1.00269950,.00028087,0.0918,91.1579,2.8746,181.7795,0,U,38245,999,4547,0,.139E-5,0
AEHF-2 (USA 235),2012-019A,2026-06-03T10:06:25.094592,1.00270752,.00023057,6.6199,57.5897,4.5523,324.8483,0,U,38254,999,684,0,-.126E-5,0
JCSAT-13,2012-023A,2026-06-03T21:02:25.370592,1.00270601,.00030127,0.0302,66.9405,23.7566,241.2432,0,U,38331,999,5140,0,-.344E-5,0
VINASAT-2,2012-023B,2026-06-03T21:04:40.156320,1.00270844,.00026528,0.0140,347.3941,99.7046,253.2552,0,U,38332,999,4652,0,-.317E-5,0
NIMIQ 6,2012-026A,2026-06-03T21:43:43.910976,1.00273348,.00029434,0.0102,318.6520,113.8795,54.6575,0,U,38342,999,5028,0,-.162E-5,0
ZHONGXING-2A,2012-028A,2026-06-04T04:49:38.495136,1.00272684,.0003716,1.4206,84.0562,33.5112,305.7291,0,U,38352,999,5116,0,-.281E-5,0
INTELSAT 19 (IS-19),2012-030A,2026-06-03T21:14:16.734624,1.00272188,.00032477,0.0187,330.5606,109.3755,296.9797,0,U,38356,999,5031,0,-.44E-6,0
ECHOSTAR 17,2012-035A,2026-06-03T21:39:14.341248,1.00269781,.00019327,0.0186,347.4310,84.7909,37.8480,0,U,38551,999,5093,0,0,0
METEOSAT-10 (MSG-3),2012-035B,2026-06-03T22:09:49.709664,1.00275518,.00018566,4.6402,61.0788,337.7141,186.1957,0,U,38552,999,5072,0,.5E-7,0
SES-5,2012-036A,2026-06-03T18:00:00.000000,1.00270184,.00021701,0.0465,310.2198,120.8405,96.1312,0,U,38652,999,4432,0,.46E-6,0
INTELSAT 20 (IS-20),2012-043A,2026-06-03T20:46:39.861696,1.00271717,.00016297,0.0058,91.3222,86.8326,94.3264,0,U,38740,999,5061,0,-.12E-6,0
